NORAD_CAT_ID,OBJECT_NAME,OBJECT_TYPE,EPOCH,MEAN_MOTION,ECCENTRICITY,INCLINATION,RA_OF_ASC_NODE,ARG_OF_PERICENTER,MEAN_ANOMALY,BSTAR,MEAN_MOTION_DOT,MEAN_MOTION_DDOT,TLE_LINE0,TLE_LINE1,TLE_LINE2,SEMIMAJOR_AXIS,PERIOD,APOGEE,PERIGEE,DECAYED
54766.0,STARLINK-5471,PAYLOAD,2023-01-06 08:00:01,15.62871881,0.0001281999999999,53.2174,209.6969,62.3358,103.538,-0.014334,-0.01187553,0.0,0 STARLINK-5471,1 54766U 22175J   23006.33334491 -.01187553  00000-0 -14334-1 0  9994,2 54766  53.2174 209.6969 0001282  62.3358 103.5380 15.62871881  2800,6757.5030000000015,92.138,380.234,378.502,0.0
54766.0,STARLINK-5471,PAYLOAD,2023-01-06 22:00:00,15.61376689,0.0001304,53.2173,206.8593,88.885,119.3014,-0.01529,-0.01193902,0.0,0 STARLINK-5471,1 54766U 22175J   23006.91667824 -.01193902  00000-0 -15290-1 0  9994,2 54766  53.2173 206.8593 0001304  88.8850 119.3014 15.61376689  1304,6761.816,92.226,384.5630000000001,382.8,0.0
54766.0,STARLINK-5471,PAYLOAD,2023-01-07 06:00:00,15.60519006,0.0001097,53.2171,205.2382,67.5503,214.8303,-0.015809,-0.01193889,0.0,0 STARLINK-5471,1 54766U 22175J   23007.25001157 -.01193889  00000-0 -15809-1 0  9993,2 54766  53.2171 205.2382 0001097  67.5503 214.8303 15.60519006  2954,6764.294,92.277,386.901,385.417,0.0
54766.0,STARLINK-5471,PAYLOAD,2023-01-08 00:00:00,15.58583085,0.0001248,53.2172,201.6027,77.0631,98.487,-0.016818,-0.01180579,0.0,0 STARLINK-5471,1 54766U 22175J   23008.00001157 -.01180579  00000-0 -16818-1 0  9990,2 54766  53.2172 201.6027 0001248  77.0631  98.4870 15.58583085  1305,6769.894,92.392,392.604,390.914,0.0
54766.0,STARLINK-5471,PAYLOAD,2023-01-08 06:00:00,15.57948944,0.0001330999999999,53.2169,200.3915,60.4857,78.2924,-0.017443,-0.01193837,0.0,0 STARLINK-5471,1 54766U 22175J   23008.25001157 -.01193837  00000-0 -17443-1 0  9993,2 54766  53.2169 200.3915 0001331  60.4857  78.2924 15.57948944  3106,6771.731,92.429,394.497,392.695,0.0
54766.0,STARLINK-5471,PAYLOAD,2023-01-08 14:00:01,15.57090312,0.00013,53.2167,198.7796,65.971,142.8804,-0.017967,-0.01190761,0.0,0 STARLINK-5471,1 54766U 22175J   23008.58334491 -.01190761  00000-0 -17967-1 0  9993,2 54766  53.2167 198.7796 0001300  65.9710 142.8804 15.57090312  1307,6774.22,92.48,396.966,395.205,0.0
54766.0,STARLINK-5471,PAYLOAD,2023-01-08 22:00:00,15.56232998,0.0001183,53.2169,197.1723,81.5148,196.3782,-0.01855,-0.01190446,0.0,0 STARLINK-5471,1 54766U 22175J   23008.91667824 -.01190446  00000-0 -18550-1 0  9998,2 54766  53.2169 197.1723 0001183  81.5148 196.3782 15.56232998  1306,6776.708000000001,92.531,399.375,397.771,0.0
54766.0,STARLINK-5471,PAYLOAD,2023-01-09 08:00:01,15.55157171,0.0001209,53.2174,195.1609,59.4103,33.4062,-0.019195,-0.01184144,0.0,0 STARLINK-5471,1 54766U 22175J   23009.33335648 -.01184144  00000-0 -19195-1 0  9995,2 54766  53.2174 195.1609 0001209  59.4103  33.4062 15.55157171  3275,6779.833000000001,92.595,402.517,400.878,0.0
54766.0,STARLINK-5471,PAYLOAD,2023-01-09 14:00:01,15.54531514,0.0001286,53.2167,193.9577,57.4689,355.4149,-0.020075,-0.01226268,0.0,0 STARLINK-5471,1 54766U 22175J   23009.58334491 -.01226268  00000-0 -20075-1 0  9990,2 54766  53.2167 193.9577 0001286  57.4689 355.4149 15.54531514  1300,6781.651999999999,92.632,404.389,402.645,0.0
54766.0,STARLINK-5471,PAYLOAD,2023-01-10 00:00:00,15.53442642,0.0001351,53.2172,191.9555,59.944,165.2267,-0.020409,-0.01182192,0.0,0 STARLINK-5471,1 54766U 22175J   23010.00001157 -.01182192  00000-0 -20409-1 0  9997,2 54766  53.2172 191.9555 0001351  59.9440 165.2267 15.53442642  1305,6784.82,92.697,407.602,405.769,0.0
54766.0,STARLINK-5471,PAYLOAD,2023-01-10 10:00:00,15.52371655,0.0001111,53.2176,189.9531,66.1653,329.6774,-0.021257,-0.01202058,0.0,0 STARLINK-5471,1 54766U 22175J   23010.41667824 -.01202058  00000-0 -21257-1 0  9997,2 54766  53.2176 189.9531 0001111  66.1653 329.6774 15.52371655  3440,6787.941,92.761,410.56,409.052,0.0
54766.0,STARLINK-5471,PAYLOAD,2023-01-10 14:00:01,15.51954926,0.0001452,53.2169,189.1545,50.3851,197.269,-0.021883,-0.01217536,0.0,0 STARLINK-5471,1 54766U 22175J   23010.58334491 -.01217536  00000-0 -21883-1 0  9998,2 54766  53.2169 189.1545 0001452  50.3851 197.2690 15.51954926  1308,6789.156,92.786,412.007,410.035,0.0
54766.0,STARLINK-5471,PAYLOAD,2023-01-10 22:00:00,15.51046876,0.0001339,53.2167,187.5596,60.6485,249.879,-0.020342,-0.01089691,0.0,0 STARLINK-5471,1 54766U 22175J   23010.91667824 -.01089691  00000-0 -20342-1 0  9992,2 54766  53.2167 187.5596 0001339  60.6485 249.8790 15.51046876  1306,6791.805,92.841,414.58,412.761,0.0
54766.0,STARLINK-5471,PAYLOAD,2023-01-11 08:00:01,15.50005181,0.0001409,53.2171,185.5636,44.6674,73.0114,-0.0032633,-0.00182195,0.0,0 STARLINK-5471,1 54766U 22175J   23011.33334491 -.00182195  00000-0 -32633-2 0  9999,2 54766  53.2171 185.5636 0001409  44.6674  73.0114 15.50005181  3586,6794.848000000001,92.903,417.67,415.756,0.0
54766.0,STARLINK-5471,PAYLOAD,2023-01-11 14:00:01,15.49887065,0.0001485,53.2175,184.3692,49.6784,23.747,-5.4459e-05,-3.541e-05,0.0,0 STARLINK-5471,1 54766U 22175J   23011.58334491 -.00003541  00000-0 -54459-4 0  9995,2 54766  53.2175 184.3692 0001485  49.6784  23.7470 15.49887065  1302,6795.193,92.91,418.067,416.049,0.0
54766.0,STARLINK-5471,PAYLOAD,2023-01-11 22:00:00,15.4988144,0.0001543,53.2173,182.7776,45.8002,88.5407,0.00013931,7.462e-05,0.0,0 STARLINK-5471,1 54766U 22175J   23011.91667824  .00007462  00000-0  13931-3 0  9994,2 54766  53.2173 182.7776 0001543  45.8002  88.5407 15.49881440  3673,6795.21,92.91,418.1230000000001,416.026,0.0
54766.0,STARLINK-5471,PAYLOAD,2023-01-12 22:00:00,15.49858721,0.00016,53.215,178.002,66.3889,250.6655,0.00085141,0.00048124,0.0,0 STARLINK-5471,1 54766U 22175J   23012.91667824  .00048124  00000-0  85141-3 0  9997,2 54766  53.2150 178.0020 0001600  66.3889 250.6655 15.49858721  3834,6795.276,92.912,418.228,416.054,0.0
54766.0,STARLINK-5471,PAYLOAD,2023-01-13 14:00:01,15.49896191,0.000152,53.2153,174.8147,80.0452,358.8202,-0.0003759,-0.00021735,0.0,0 STARLINK-5471,1 54766U 22175J   23013.58334491 -.00021735  00000-0 -37590-3 0  9998,2 54766  53.2153 174.8147 0001520  80.0452 358.8202 15.49896191  1303,6795.166,92.909,418.064,415.999,0.0
54766.0,STARLINK-5471,PAYLOAD,2023-01-13 16:00:00,15.49889328,0.0001538,53.2151,174.4169,76.6838,107.4135,-0.00022464,-0.00013182,0.0,0 STARLINK-5471,1 54766U 22175J   23013.66667824 -.00013182  00000-0 -22464-3 0  9997,2 54766  53.2151 174.4169 0001538  76.6838 107.4135 15.49889328  3948,6795.187,92.91,418.097,416.006,0.0
54766.0,STARLINK-5471,PAYLOAD,2023-01-13 22:00:00,15.49874335,0.0001506,53.2149,173.2228,74.1916,65.6002,0.00048282,0.00027035,0.0,0 STARLINK-5471,1 54766U 22175J   23013.91667824  .00027035  00000-0  48282-3 0  9991,2 54766  53.2149 173.2228 0001506  74.1916  65.6002 15.49874335  1301,6795.23,92.911,418.119,416.072,0.0
54766.0,STARLINK-5471,PAYLOAD,2023-01-14 16:00:00,15.49877462,0.0001471,53.2159,169.6364,79.2115,287.6364,0.0006347,0.00035726,0.0,0 STARLINK-5471,1 54766U 22175J   23014.66667824  .00035726  00000-0  63470-3 0  9996,2 54766  53.2159 169.6364 0001471  79.2115 287.6364 15.49877462  4102,6795.221,92.911,418.086,416.087,0.0
54766.0,STARLINK-5471,PAYLOAD,2023-01-15 06:00:00,15.49872621,0.0001313,53.2141,166.8487,88.7549,294.6904,0.00060201,0.00033849,0.0,0 STARLINK-5471,1 54766U 22175J   23015.25001157  .00033849  00000-0  60201-3 0  9996,2 54766  53.2141 166.8487 0001313  88.7549 294.6904 15.49872621  4198,6795.235,92.911,417.99300000000005,416.208,0.0
54766.0,STARLINK-5471,PAYLOAD,2023-01-15 14:00:01,15.49924334,0.0001298,53.2144,165.2566,83.0798,1.2821,-0.0013161,-0.00074543,0.0,0 STARLINK-5471,1 54766U 22175J   23015.58334491 -.00074543  00000-0 -13161-2 0  9992,2 54766  53.2144 165.2566 0001298  83.0798   1.2821 15.49924334  1307,6795.084,92.908,417.831,416.067,0.0
54766.0,STARLINK-5471,PAYLOAD,2023-01-15 22:00:01,15.49864594,0.0001273,53.2143,163.6643,74.9361,70.4098,0.00082453,0.0004659,0.0,0 STARLINK-5471,1 54766U 22175J   23015.91668981  .00046590  00000-0  82453-3 0  9993,2 54766  53.2143 163.6643 0001273  74.9361  70.4098 15.49864594  4298,6795.259,92.911,417.989,416.259,0.0
54766.0,STARLINK-5471,PAYLOAD,2023-01-16 14:00:01,15.49986487,8.82e-05,53.2145,160.4773,82.3921,184.7029,-0.022134,-0.01136327,0.0,0 STARLINK-5471,1 54766U 22175J   23016.58334491 -.01136327  00000-0 -22134-1 0  9992,2 54766  53.2145 160.4773 0000882  82.3921 184.7029 15.49986487  4401,6794.903,92.904,417.367,416.168,0.0
54766.0,STARLINK-5471,PAYLOAD,2023-01-16 22:00:00,15.49169947,8.35e-05,53.2144,158.8856,63.7132,263.9172,-0.024038,-0.01210958,0.0,0 STARLINK-5471,1 54766U 22175J   23016.91667824 -.01210958  00000-0 -24038-1 0  9996,2 54766  53.2144 158.8856 0000835  63.7132 263.9172 15.49169947  1307,6797.29,92.953,419.723,418.587,0.0
54766.0,STARLINK-5471,PAYLOAD,2023-01-17 14:00:01,15.47433576,0.0001115,53.2173,155.7027,84.8332,0.7773,-0.024701,-0.01174105,0.0,0 STARLINK-5471,1 54766U 22175J   23017.58334491 -.01174105  00000-0 -24701-1 0  9991,2 54766  53.2173 155.7027 0001115  84.8332   0.7773 15.47433576  1307,6802.374,93.057,424.997,423.48,0.0
54766.0,STARLINK-5471,PAYLOAD,2023-01-17 22:00:00,15.46607162,0.0001264,53.2141,154.1205,69.8287,73.2633,-0.026626,-0.01224695,0.0,0 STARLINK-5471,1 54766U 22175J   23017.91667824 -.01224695  00000-0 -26626-1 0  9995,2 54766  53.2141 154.1205 0001264  69.8287  73.2633 15.46607162  1303,6804.797,93.107,427.522,425.802,0.0
54766.0,STARLINK-5471,PAYLOAD,2023-01-18 02:00:01,15.46164129,0.0001008,53.2143,153.3271,84.7115,266.7332,-0.026764,-0.01213282,0.0,0 STARLINK-5471,1 54766U 22175J   23018.08334491 -.01213282  00000-0 -26764-1 0  9998,2 54766  53.2143 153.3271 0001008  84.7115 266.7332 15.46164129  4636,6806.097,93.134,428.648,427.276,0.0
